CSS (TIANHE)            
1 48274U 21035A   23209.08080740  .00016670  00000+0  20048-3 0  9995
2 48274  41.4741 267.4330 0007703  13.7135 346.3912 15.60433649128224
